{
    "links": {
        "self": "http://www.neowsapp.com/rest/v1/neo/3836083?api_key=iIulBulltgU6a56xZRHN4H3l9WmuAYTsLGpBGhQ2"
    },
    "id": "3836083",
    "neo_reference_id": "3836083",
    "name": "(2018 VF3)",
    "designation": "2018 VF3",
    "nasa_jpl_url": "http://ssd.jpl.nasa.gov/sbdb.cgi?sstr=3836083",
    "absolute_magnitude_h": 21.5,
    "estimated_diameter": {
        "kilometers": {
            "estimated_diameter_min": 0.1332155667,
            "estimated_diameter_max": 0.2978790628
        },
        "meters": {
            "estimated_diameter_min": 133.2155666981,
            "estimated_diameter_max": 297.8790627982
        },
        "miles": {
            "estimated_diameter_min": 0.0827762899,
            "estimated_diameter_max": 0.1850934111
        },
        "feet": {
            "estimated_diameter_min": 437.0589598459,
            "estimated_diameter_max": 977.2935443908
        }
    },
    "is_potentially_hazardous_asteroid": false,
    "close_approach_data": [
        {
            "close_approach_date": "2018-11-15",
            "close_approach_date_full": "2018-Nov-15 02:02",
            "epoch_date_close_approach": 1542247320000,
            "relative_velocity": {
                "kilometers_per_second": "11.8826274304",
                "kilometers_per_hour": "42777.4587495703",
                "miles_per_hour": "26580.2492991427"
            },
            "miss_distance": {
                "astronomical": "0.138680086",
                "lunar": "53.946553454",
                "kilometers": "20746245.47701682",
                "miles": "12891119.170279316"
            },
            "orbiting_body": "Earth"
        }
    ],
    "orbital_data": {
        "orbit_id": "13",
        "orbit_determination_date": "2019-01-21 07:50:50",
        "first_observation_date": "2018-11-05",
        "last_observation_date": "2018-12-05",
        "data_arc_in_days": 30,
        "observations_used": 144,
        "orbit_uncertainty": "6",
        "minimum_orbit_intersection": ".106724",
        "jupiter_tisserand_invariant": "3.201",
        "epoch_osculation": "2459000.5",
        "eccentricity": ".5547557901306566",
        "semi_major_axis": "2.462056032717256",
        "inclination": "18.10082396046609",
        "ascending_node_longitude": "46.93830576759628",
        "orbital_period": "1411.05949603945",
        "perihelion_distance": "1.096216192941245",
        "perihelion_argument": "2.763789630921652",
        "aphelion_distance": "3.827895872493266",
        "perihelion_time": "2458439.472922408161",
        "mean_anomaly": "143.1334033043603",
        "mean_motion": ".2551274421882599",
        "equinox": "J2000",
        "orbit_class": {
            "orbit_class_type": "AMO",
            "orbit_class_description": "Near-Earth asteroid orbits similar to that of 1221 Amor",
            "orbit_class_range": "1.017 AU < q (perihelion) < 1.3 AU"
        }
    },
    "is_sentry_object": false
}